HODOYOSHI-4             
1 40011U 14033B   26189.14714581  .00001501  00000+0  16786-3 0  9991
2 40011  97.5465  12.9586 0022133 234.1923 125.7238 14.88181125651920
DEIMOS-2                
1 40013U 14033D   26189.15010295  .00001656  00000+0  16136-3 0  9995
2 40013  97.5804  62.9002 0001142  81.2259 278.9090 14.93790165640850
HODOYOSHI-3             
1 40015U 14033F   26188.93277841  .00000660  00000+0  82059-4 0  9996
2 40015  97.6438 351.1409 0031344 287.0069  72.7713 14.85427610650702
SPOT 7                  
1 40053U 14034A   26189.20758132  .00000082  00000+0  25931-4 0  9991
2 40053  98.0614 251.1572 0001524  98.1417 261.9957 14.60976744640206
SKYSAT-B                
1 40072U 14037D   26188.83586725  .00000988  00000+0  11411-3 0  9992
2 40072  98.3849 148.9797 0004971 197.4571 162.6474 14.88079671649039
WORLDVIEW-3 (WV-3)      
1 40115U 14048A   26189.18979176  .00000633  00000+0  80388-4 0  9994
2 40115  97.8558 263.7323 0000740 166.3473 193.7762 14.85056812645024
GAOFEN-2                
1 40118U 14049A   26189.18974073 -.00000024  00000+0  38004-5 0  9993
2 40118  98.0095 253.3763 0007755 155.3185 204.8400 14.80920928642348
YAOGAN-21               
1 40143U 14053A   26189.20431675  .00002419  00000+0  94707-4 0  9995
2 40143  97.1463 228.5403 0008567  31.4465 328.7285 15.26691582658163
YAOGAN-22               
1 40275U 14063A   26188.94762365 -.00000040  00000+0  18645-4 0  9991
2 40275 100.7752 340.5678 0006762 140.2869 219.8738 13.15531450562544
ASNARO                  
1 40298U 14070A   26189.16526486  .00005168  00000+0  24463-3 0  9990
2 40298  97.3439 264.7147 0006748 107.5870 252.6103 15.19759056647198
YAOGAN-24               
1 40310U 14072A   26189.16312925  .00000599  00000+0  94338-4 0  9990
2 40310  98.1518 326.6793 0014010 192.3341 167.7528 14.76113530626817
CBERS 4                 
1 40336U 14079A   26189.22656108 -.00000112  00000+0 -24232-4 0  9995
2 40336  98.3517 245.3973 0001053  50.2210 309.9069 14.35514499606972
YAOGAN-26               
1 40362U 14088A   26189.20998377  .00016758  00000+0  31942-3 0  9995
2 40362  97.0648 188.9385 0003036  14.2867 345.8470 15.48237184640951
SMAP                    
1 40376U 15003A   26189.20805481  .00000321  00000+0  71093-4 0  9992
2 40376  98.1280 196.0050 0001543  96.3818 263.7560 14.63385108610699
KOMPSAT-3A              
1 40536U 15014A   26189.22679726  .00018708  00000+0  25986-3 0  9992
2 40536  97.6894 182.1433 0056849 100.1500 260.6172 15.55118134625083
SENTINEL-2A             
1 40697U 15028A   26189.19370235 -.00000101  00000+0 -22053-4 0  9997
2 40697  98.5674 263.7469 0001230  96.5968 263.5355 14.30820961576734
GAOFEN-8                
1 40701U 15030A   26189.18362769  .00011456  00000+0  23038-3 0  9994
2 40701  97.6908  23.8239 0009817 117.1576 243.0674 15.46750996614697
CARBONITE 1 (CBNT-1)    
1 40718U 15032D   26189.22511981  .00000521  00000+0  69225-4 0  9991
2 40718  97.6523   6.4120 0013325 221.5877 138.4325 14.83651786592464
YAOGAN-27               
1 40878U 15040A   26189.23836369  .00000554  00000+0  15700-2 0  9991
2 40878 100.1168 174.7081 0008330 160.4054 199.7381 13.16073176520435
GAOFEN-9 01             
1 40894U 15047A   26189.18281889  .00000706  00000+0  92672-4 0  9995
2 40894  97.6266 223.9228 0028792  72.4212 288.0144 14.82925448583300
YAOGAN-28               
1 41026U 15064A   26189.21931208  .00004620  00000+0  17307-3 0  9993
2 41026  97.3097 327.0591 0011983 114.5245 245.7245 15.27698668593892
YAOGAN-29               
1 41038U 15069A   26189.22773372  .00000224  00000+0  34152-4 0  9992
2 41038  98.0021 217.8928 0001268  20.5778 339.5486 14.83102009573743
KENT RIDGE 1            
1 41167U 15077B   26188.98708480  .00002955  00000+0  89800-4 0  9997
2 41167  14.9792 111.2788 0008206 173.3581 186.6850 15.23256496584278
GAOFEN-4                
1 41194U 15083A   26189.06780808 -.00000320  00000+0  00000+0 0  9993
2 41194   0.4079  83.8617 0004284 117.2357 215.0491  1.00271148 38735
JASON-3                 
1 41240U 16002A   26189.20664889 -.00000051  00000+0  43248-4 0  9990
2 41240  66.0418  81.6456 0008255 271.4959  88.5114 12.87628219489953
SENTINEL-3A             
1 41335U 16011A   26189.18540050  .00000073  00000+0  48243-4 0  9998
2 41335  98.6240 256.2665 0001408  92.2709 267.8633 14.26738476541059
ZIYUAN 3-02 (ZY 3-02)   
1 41556U 16033A   26189.17216176  .00003394  00000+0  15411-3 0  9994
2 41556  97.3827 264.5429 0013337 210.0516 149.9956 15.21387264561175
CARTOSAT-2C             
1 41599U 16040A   26189.20305060  .00000812  00000+0  41769-4 0  9992
2 41599  97.4469 248.8907 0010019  66.3029 293.9256 15.19227080556900
SKYSAT-C1               
1 41601U 16040C   26187.62426664  .00007669  00000+0  21640-3 0  9996
2 41601  96.9556 218.2931 0001233  14.2930 345.8350 15.36647042560858
LAPAN-A3                
1 41603U 16040E   26189.20700468  .00002236  00000+0  71901-4 0  9992
2 41603  97.1499 184.6643 0008478 306.6359  53.4104 15.33246990558036
GAOFEN-3                
1 41727U 16049A   26189.17487772  .00000055  00000+0  29765-4 0  9992
2 41727  98.4018 196.6441 0001755  90.4455 269.6935 14.42218259521678
