OBJECT_NAME,OBJECT_ID,EPOCH,MEAN_MOTION,ECCENTRICITY,INCLINATION,RA_OF_ASC_NODE,ARG_OF_PERICENTER,MEAN_ANOMALY,EPHEMERIS_TYPE,CLASSIFICATION_TYPE,NORAD_CAT_ID,ELEMENT_SET_NO,REV_AT_EPOCH,BSTAR,MEAN_MOTION_DOT,MEAN_MOTION_DDOT
HODOYOSHI-4,2014-033B,2026-07-08T03:31:53.397984,14.88181125,.0022133,97.5465,12.9586,234.1923,125.7238,0,U,40011,999,65192,.16786E-3,.1501E-4,0
DEIMOS-2,2014-033D,2026-07-08T03:36:08.894880,14.93790165,.0001142,97.5804,62.9002,81.2259,278.9090,0,U,40013,999,64085,.16136E-3,.1656E-4,0
HODOYOSHI-3,2014-033F,2026-07-07T22:23:12.054624,14.85427610,.0031344,97.6438,351.1409,287.0069,72.7713,0,U,40015,999,65070,.82059E-4,.66E-5,0
SPOT 7,2014-034A,2026-07-08T04:58:55.026048,14.60976744,.0001524,98.0614,251.1572,98.1417,261.9957,0,U,40053,999,64020,.25931E-4,.82E-6,0
SKYSAT-B,2014-037D,2026-07-07T20:03:38.930400,14.88079671,.0004971,98.3849,148.9797,197.4571,162.6474,0,U,40072,999,64903,.11411E-3,.988E-5,0
WORLDVIEW-3 (WV-3),2014-048A,2026-07-08T04:33:18.008064,14.85056812,.000074,97.8558,263.7323,166.3473,193.7762,0,U,40115,999,64502,.80388E-4,.633E-5,0
GAOFEN-2,2014-049A,2026-07-08T04:33:13.599072,14.80920928,.0007755,98.0095,253.3763,155.3185,204.8400,0,U,40118,999,64234,.38004E-5,-.24E-6,0
YAOGAN-21,2014-053A,2026-07-08T04:54:12.967200,15.26691582,.0008567,97.1463,228.5403,31.4465,328.7285,0,U,40143,999,65816,.94707E-4,.2419E-4,0
YAOGAN-22,2014-063A,2026-07-07T22:44:34.683360,13.15531450,.0006762,100.7752,340.5678,140.2869,219.8738,0,U,40275,999,56254,.18645E-4,-.4E-6,0
ASNARO,2014-070A,2026-07-08T03:57:58.883904,15.19759056,.0006748,97.3439,264.7147,107.5870,252.6103,0,U,40298,999,64719,.24463E-3,.5168E-4,0
YAOGAN-24,2014-072A,2026-07-08T03:54:54.367200,14.76113530,.001401,98.1518,326.6793,192.3341,167.7528,0,U,40310,999,62681,.94338E-4,.599E-5,0
CBERS 4,2014-079A,2026-07-08T05:26:14.877312,14.35514499,.0001053,98.3517,245.3973,50.2210,309.9069,0,U,40336,999,60697,-.24232E-4,-.112E-5,0
YAOGAN-26,2014-088A,2026-07-08T05:02:22.597728,15.48237184,.0003036,97.0648,188.9385,14.2867,345.8470,0,U,40362,999,64095,.31942E-3,.16758E-3,0
SMAP,2015-003A,2026-07-08T04:59:35.935584,14.63385108,.0001543,98.1280,196.0050,96.3818,263.7560,0,U,40376,999,61069,.71093E-4,.321E-5,0
KOMPSAT-3A,2015-014A,2026-07-08T05:26:35.283264,15.55118134,.0056849,97.6894,182.1433,100.1500,260.6172,0,U,40536,999,62508,.25986E-3,.18708E-3,0
SENTINEL-2A,2015-028A,2026-07-08T04:38:55.883040,14.30820961,.000123,98.5674,263.7469,96.5968,263.5355,0,U,40697,999,57673,-.22053E-4,-.101E-5,0
GAOFEN-8,2015-030A,2026-07-08T04:24:25.432416,15.46750996,.0009817,97.6908,23.8239,117.1576,243.0674,0,U,40701,999,61469,.23038E-3,.11456E-3,0
CARBONITE 1 (CBNT-1),2015-032D,2026-07-08T05:24:10.351584,14.83651786,.0013325,97.6523,6.4120,221.5877,138.4325,0,U,40718,999,59246,.69225E-4,.521E-5,0
YAOGAN-27,2015-040A,2026-07-08T05:43:14.622816,13.16073176,.000833,100.1168,174.7081,160.4054,199.7381,0,U,40878,999,52043,.157E-2,.554E-5,0
GAOFEN-9 01,2015-047A,2026-07-08T04:23:15.552096,14.82925448,.0028792,97.6266,223.9228,72.4212,288.0144,0,U,40894,999,58330,.92672E-4,.706E-5,0
YAOGAN-28,2015-064A,2026-07-08T05:15:48.563712,15.27698668,.0011983,97.3097,327.0591,114.5245,245.7245,0,U,41026,999,59389,.17307E-3,.462E-4,0
YAOGAN-29,2015-069A,2026-07-08T05:27:56.193408,14.83102009,.0001268,98.0021,217.8928,20.5778,339.5486,0,U,41038,999,57374,.34152E-4,.224E-5,0
KENT RIDGE 1,2015-077B,2026-07-07T23:41:24.126720,15.23256496,.0008206,14.9792,111.2788,173.3581,186.6850,0,U,41167,999,58427,.898E-4,.2955E-4,0
GAOFEN-4,2015-083A,2026-07-08T01:37:38.618112,1.00271148,.0004284,0.4079,83.8617,117.2357,215.0491,0,U,41194,999,3873,0,-.32E-5,0
JASON-3,2016-002A,2026-07-08T04:57:34.464096,12.87628219,.0008255,66.0418,81.6456,271.4959,88.5114,0,U,41240,999,48995,.43248E-4,-.51E-6,0
SENTINEL-3A,2016-011A,2026-07-08T04:26:58.603200,14.26738476,.0001408,98.6240,256.2665,92.2709,267.8633,0,U,41335,999,54105,.48243E-4,.73E-6,0
ZIYUAN 3-02 (ZY 3-02),2016-033A,2026-07-08T04:07:54.776064,15.21387264,.0013337,97.3827,264.5429,210.0516,149.9956,0,U,41556,999,56117,.15411E-3,.3394E-4,0
CARTOSAT-2C,2016-040A,2026-07-08T04:52:23.571840,15.19227080,.0010019,97.4469,248.8907,66.3029,293.9256,0,U,41599,999,55690,.41769E-4,.812E-5,0
SKYSAT-C1,2016-040C,2026-07-06T14:58:56.637696,15.36647042,.00012336,96.9556,218.2931,14.2930,345.8350,0,U,41601,999,56085,.21640269E-3,.7669E-4,0
LAPAN-A3,2016-040E,2026-07-08T04:58:05.204352,15.33246990,.0008478,97.1499,184.6643,306.6359,53.4104,0,U,41603,999,55803,.71901E-4,.2236E-4,0
GAOFEN-3,2016-049A,2026-07-08T04:11:49.435008,14.42218259,.0001755,98.4018,196.6441,90.4455,269.6935,0,U,41727,999,52167,.29765E-4,.55E-6,0
